{"type": "FeatureCollection", "features": [{"type": "Feature", "properties": {"norad_id": 22490, "name": "SCD 1", "group": "resource", "lat": -19.913103260407937, "lon": 169.06384815765597, "alt_km": 723.1593558898294, "timestamp": "2025-12-09T14:52:25.822179+00:00", "meta": {"OBJECT_NAME": "SCD 1", "OBJECT_ID": "1993-009B", "EPOCH": "2025-12-09T04:23:05.110656", "MEAN_MOTION": 14.45994752, "ECCENTRICITY": 0.00417245, "INCLINATION": 24.9704, "RA_OF_ASC_NODE": 300.645, "ARG_OF_PERICENTER": 287.2095, "MEAN_ANOMALY": 187.2931, "EPHEMERIS_TYPE": 0, "CLASSIFICATION_TYPE": "U", "NORAD_CAT_ID": 22490, "ELEMENT_SET_NO": 999, "REV_AT_EPOCH": 73358, "BSTAR": 0.00014848469, "MEAN_MOTION_DOT": 7.29e-06, "MEAN_MOTION_DDOT": 0}, "tle": {"line1": "1 22490U 93009B   25343.18269804  .00000729  00000+0  14848-3 0  9998", "line2": "2 22490  24.9704 300.6450 0041724 287.2095 187.2931 14.45994752733581"}}, "geometry": {"type": "Point", "coordinates": [169.06384815765597, -19.913103260407937]}}, {"type": "Feature", "properties": {"norad_id": 25397, "name": "TECHSAT 1B (GO-32)", "group": "resource", "lat": 19.121132756089025, "lon": -36.3870098384157, "alt_km": 809.5786287397832, "timestamp": "2025-12-09T14:52:25.822205+00:00", "meta": {"OBJECT_NAME": "TECHSAT 1B (GO-32)", "OBJECT_ID": "1998-043D", "EPOCH": "2025-12-08T21:55:27.338304", "MEAN_MOTION": 14.24375251, "ECCENTRICITY": 0.0002145, "INCLINATION": 98.9915, "RA_OF_ASC_NODE": 326.0373, "ARG_OF_PERICENTER": 63.4685, "MEAN_ANOMALY": 296.6713, "EPHEMERIS_TYPE": 0, "CLASSIFICATION_TYPE": "U", "NORAD_CAT_ID": 25397, "ELEMENT_SET_NO": 999, "REV_AT_EPOCH": 42424, "BSTAR": 8.5481e-05, "MEAN_MOTION_DOT": 1.51e-06, "MEAN_MOTION_DDOT": 0}, "tle": {"line1": "1 25397U 98043D   25342.91351086  .00000151  00000+0  85481-4 0  9995", "line2": "2 25397  98.9915 326.0373 0002145  63.4685 296.6713 14.24375251424241"}}, "geometry": {"type": "Point", "coordinates": [-36.3870098384157, 19.121132756089025]}}, {"type": "Feature", "properties": {"norad_id": 25504, "name": "SCD 2", "group": "resource", "lat": -24.948055602300457, "lon": 74.1724584323392, "alt_km": 729.5594710331707, "timestamp": "2025-12-09T14:52:25.822221+00:00", "meta": {"OBJECT_NAME": "SCD 2", "OBJECT_ID": "1998-060A", "EPOCH": "2025-12-08T21:41:28.157568", "MEAN_MOTION": 14.45419789, "ECCENTRICITY": 0.0016589, "INCLINATION": 24.9931, "RA_OF_ASC_NODE": 165.5501, "ARG_OF_PERICENTER": 272.5598, "MEAN_ANOMALY": 227.2256, "EPHEMERIS_TYPE": 0, "CLASSIFICATION_TYPE": "U", "NORAD_CAT_ID": 25504, "ELEMENT_SET_NO": 999, "REV_AT_EPOCH": 43276, "BSTAR": 0.00010877, "MEAN_MOTION_DOT": 5.72e-06, "MEAN_MOTION_DDOT": 0}, "tle": {"line1": "1 25504U 98060A   25342.90379812  .00000572  00000+0  10877-3 0  9993", "line2": "2 25504  24.9931 165.5501 0016589 272.5598 227.2256 14.45419789432766"}}, "geometry": {"type": "Point", "coordinates": [74.1724584323392, -24.948055602300457]}}, {"type": "Feature", "properties": {"norad_id": 25757, "name": "DLR-TUBSAT", "group": "resource", "lat": -73.44631661058473, "lon": -1.1314848270367615, "alt_km": 723.8254479903035, "timestamp": "2025-12-09T14:52:25.822235+00:00", "meta": {"OBJECT_NAME": "DLR-TUBSAT", "OBJECT_ID": "1999-029B", "EPOCH": "2025-12-09T05:18:08.236224", "MEAN_MOTION": 14.52355381, "ECCENTRICITY": 0.00137004, "INCLINATION": 98.656, "RA_OF_ASC_NODE": 327.6261, "ARG_OF_PERICENTER": 203.7718, "MEAN_ANOMALY": 156.2845, "EPHEMERIS_TYPE": 0, "CLASSIFICATION_TYPE": "U", "NORAD_CAT_ID": 25757, "ELEMENT_SET_NO": 999, "REV_AT_EPOCH": 40567, "BSTAR": 6.8755033e-05, "MEAN_MOTION_DOT": 2.32e-06, "MEAN_MOTION_DDOT": 0}, "tle": {"line1": "1 25757U 99029B   25343.22092866  .00000232  00000+0  68755-4 0  9998", "line2": "2 25757  98.6560 327.6261 0013700 203.7718 156.2845 14.52355381405678"}}, "geometry": {"type": "Point", "coordinates": [-1.1314848270367615, -73.44631661058473]}}, {"type": "Feature", "properties": {"norad_id": 25994, "name": "TERRA", "group": "resource", "lat": -70.05371107956091, "lon": -167.3060980651328, "alt_km": 699.7793349228932, "timestamp": "2025-12-09T14:52:25.822247+00:00", "meta": {"OBJECT_NAME": "TERRA", "OBJECT_ID": "1999-068A", "EPOCH": "2025-12-09T07:28:05.081952", "MEAN_MOTION": 14.60896422, "ECCENTRICITY": 0.00035764, "INCLINATION": 97.9753, "RA_OF_ASC_NODE": 35.1215, "ARG_OF_PERICENTER": 101.1751, "MEAN_ANOMALY": 328.5352, "EPHEMERIS_TYPE": 0, "CLASSIFICATION_TYPE": "U", "NORAD_CAT_ID": 25994, "ELEMENT_SET_NO": 999, "REV_AT_EPOCH": 38188, "BSTAR": 0.00020414616, "MEAN_MOTION_DOT": 9.54e-06, "MEAN_MOTION_DDOT": 0}, "tle": {"line1": "1 25994U 99068A   25343.31116993  .00000954  00000+0  20415-3 0  9993", "line2": "2 25994  97.9753  35.1215 0003576 101.1751 328.5352 14.60896422381883"}}, "geometry": {"type": "Point", "coordinates": [-167.3060980651328, -70.05371107956091]}}, {"type": "Feature", "properties": {"norad_id": 27004, "name": "MAROC-TUBSAT", "group": "resource", "lat": 3.355487023416043, "lon": -27.409986806492835, "alt_km": 1001.491779157368, "timestamp": "2025-12-09T14:52:25.822274+00:00", "meta": {"OBJECT_NAME": "MAROC-TUBSAT", "OBJECT_ID": "2001-056D", "EPOCH": "2025-12-09T06:07:21.111744", "MEAN_MOTION": 13.70252639, "ECCENTRICITY": 0.00190891, "INCLINATION": 99.7912, "RA_OF_ASC_NODE": 151.6391, "ARG_OF_PERICENTER": 269.4188, "MEAN_ANOMALY": 269.4893, "EPHEMERIS_TYPE": 0, "CLASSIFICATION_TYPE": "U", "NORAD_CAT_ID": 27004, "ELEMENT_SET_NO": 999, "REV_AT_EPOCH": 20017, "BSTAR": 4.661016e-05, "MEAN_MOTION_DOT": -6e-08, "MEAN_MOTION_DDOT": 0}, "tle": {"line1": "1 27004U 01056D   25343.25510546 -.00000006  00000+0  46610-4 0  9997", "line2": "2 27004  99.7912 151.6391 0019089 269.4188 269.4893 13.70252639200172"}}, "geometry": {"type": "Point", "coordinates": [-27.409986806492835, 3.355487023416043]}}, {"type": "Feature", "properties": {"norad_id": 27424, "name": "AQUA", "group": "resource", "lat": 62.3301666420644, "lon": 140.823411074583, "alt_km": 680.6112132687431, "timestamp": "2025-12-09T14:52:25.822288+00:00", "meta": {"OBJECT_NAME": "AQUA", "OBJECT_ID": "2002-022A", "EPOCH": "2025-12-09T08:20:03.600096", "MEAN_MOTION": 14.61797242, "ECCENTRICITY": 9.593e-05, "INCLINATION": 98.4034, "RA_OF_ASC_NODE": 304.1713, "ARG_OF_PERICENTER": 114.1037, "MEAN_ANOMALY": 9.2369, "EPHEMERIS_TYPE": 0, "CLASSIFICATION_TYPE": "U", "NORAD_CAT_ID": 27424, "ELEMENT_SET_NO": 999, "REV_AT_EPOCH": 25553, "BSTAR": 0.00040710338, "MEAN_MOTION_DOT": 1.983e-05, "MEAN_MOTION_DDOT": 0}, "tle": {"line1": "1 27424U 02022A   25343.34726389  .00001983  00000+0  40710-3 0  9999", "line2": "2 27424  98.4034 304.1713 0000959 114.1037   9.2369 14.61797242255530"}}, "geometry": {"type": "Point", "coordinates": [140.823411074583, 62.3301666420644]}}, {"type": "Feature", "properties": {"norad_id": 28051, "name": "IRS-P6 (RESOURCESAT-1)", "group": "resource", "lat": -81.7738299667606, "lon": 112.5549140832778, "alt_km": 770.7657525429286, "timestamp": "2025-12-09T14:52:25.822301+00:00", "meta": {"OBJECT_NAME": "IRS-P6 (RESOURCESAT-1)", "OBJECT_ID": "2003-046A", "EPOCH": "2025-12-09T07:21:48.160224", "MEAN_MOTION": 14.36072904, "ECCENTRICITY": 0.00639111, "INCLINATION": 98.2177, "RA_OF_ASC_NODE": 23.8727, "ARG_OF_PERICENTER": 190.9971, "MEAN_ANOMALY": 261.6163, "EPHEMERIS_TYPE": 0, "CLASSIFICATION_TYPE": "U", "NORAD_CAT_ID": 28051, "ELEMENT_SET_NO": 999, "REV_AT_EPOCH": 15327, "BSTAR": 0.00015566742, "MEAN_MOTION_DOT": 4.22e-06, "MEAN_MOTION_DDOT": 0}, "tle": {"line1": "1 28051U 03046A   25343.30680741  .00000422  00000+0  15567-3 0  9999", "line2": "2 28051  98.2177  23.8727 0063911 190.9971 261.6163 14.36072904153276"}}, "geometry": {"type": "Point", "coordinates": [112.5549140832778, -81.7738299667606]}}, {"type": "Feature", "properties": {"norad_id": 28220, "name": "SHIYAN-1 (SY-1)", "group": "resource", "lat": -11.197446433529626, "lon": -136.59999457068562, "alt_km": 489.5427257748979, "timestamp": "2025-12-09T14:52:25.822312+00:00", "meta": {"OBJECT_NAME": "SHIYAN-1 (SY-1)", "OBJECT_ID": "2004-012A", "EPOCH": "2025-12-09T03:02:15.771552", "MEAN_MOTION": 15.27994038, "ECCENTRICITY": 0.00058813, "INCLINATION": 97.8933, "RA_OF_ASC_NODE": 44.4517, "ARG_OF_PERICENTER": 339.3604, "MEAN_ANOMALY": 20.7396, "EPHEMERIS_TYPE": 0, "CLASSIFICATION_TYPE": "U", "NORAD_CAT_ID": 28220, "ELEMENT_SET_NO": 999, "REV_AT_EPOCH": 18201, "BSTAR": 0.00059931841, "MEAN_MOTION_DOT": 0.00016313, "MEAN_MOTION_DDOT": 0}, "tle": {"line1": "1 28220U 04012A   25343.12657143  .00016313  00000+0  59932-3 0  9991", "line2": "2 28220  97.8933  44.4517 0005881 339.3604  20.7396 15.27994038182017"}}, "geometry": {"type": "Point", "coordinates": [-136.59999457068562, -11.197446433529626]}}, {"type": "Feature", "properties": {"norad_id": 28376, "name": "AURA", "group": "resource", "lat": -74.95936784477348, "lon": 80.84365646336079, "alt_km": 698.2671830332183, "timestamp": "2025-12-09T14:52:25.822324+00:00", "meta": {"OBJECT_NAME": "AURA", "OBJECT_ID": "2004-026A", "EPOCH": "2025-12-09T07:07:26.977728", "MEAN_MOTION": 14.60934841, "ECCENTRICITY": 0.00011798, "INCLINATION": 98.3181, "RA_OF_ASC_NODE": 293.5076, "ARG_OF_PERICENTER": 93.6429, "MEAN_ANOMALY": 266.4906, "EPHEMERIS_TYPE": 0, "CLASSIFICATION_TYPE": "U", "NORAD_CAT_ID": 28376, "ELEMENT_SET_NO": 999, "REV_AT_EPOCH": 13848, "BSTAR": 0.00041523483, "MEAN_MOTION_DOT": 1.986e-05, "MEAN_MOTION_DDOT": 0}, "tle": {"line1": "1 28376U 04026A   25343.29684002  .00001986  00000+0  41523-3 0  9997", "line2": "2 28376  98.3181 293.5076 0001179  93.6429 266.4906 14.60934841138488"}}, "geometry": {"type": "Point", "coordinates": [80.84365646336079, -74.95936784477348]}}]}